{"fetched_at":"2026-03-29T16:36:15Z","count":15609,"tles":[{"name":"STARLINK-34883","line1":"1 65426U 25192Y   26087.53922852  .00017450  00000+0  59965-3 0  9994","line2":"2 65426  53.1609 144.5495 0001190  90.9748 269.1389 15.30214283 32269","category":"Starlink"}]}