{
  "norad_id": 65426,
  "name": "STARLINK-34883",
  "history": [
    {
      "epoch": "2026-03-28T12:56:29.344128",
      "apogee_km": 475.9879671089411,
      "perigee_km": 474.35687946619964,
      "latitude_deg": 13.861431691394081,
      "longitude_deg": 54.36593792005442,
      "semi_major_axis_km": 6853.30942328757,
      "eccentricity": 0.000119,
      "inclination_deg": 53.1609,
      "raan_deg": 144.5495,
      "arg_perigee_deg": 90.9748,
      "mean_anomaly_deg": 269.1389,
      "mean_motion_rev_day": 15.30214283
    }
  ]
}